<?xml version="1.0" encoding="UTF-8"?>
<ndm xmlns:xsi="http://www.w3.org/2001/XMLSchema-instance" xsi:noNamespaceSchemaLocation="https://sanaregistry.org/r/ndmxml_unqualified/ndmxml-2.0.0-master-2.0.xsd">
<omm id="CCSDS_OMM_VERS" version="2.0">
<header><CREATION_DATE/><ORIGINATOR/></header><body><segment><metadata><OBJECT_NAME>KUIPER-00053</OBJECT_NAME><OBJECT_ID>2025-134P</OBJECT_ID><CENTER_NAME>EARTH</CENTER_NAME><REF_FRAME>TEME</REF_FRAME><TIME_SYSTEM>UTC</TIME_SYSTEM><MEAN_ELEMENT_THEORY>SGP4</MEAN_ELEMENT_THEORY></metadata><data><meanElements><EPOCH>2025-12-07T12:44:41.818848</EPOCH><MEAN_MOTION>14.80022751</MEAN_MOTION><ECCENTRICITY>.00017789</ECCENTRICITY><INCLINATION>51.9016</INCLINATION><RA_OF_ASC_NODE>270.6186</RA_OF_ASC_NODE><ARG_OF_PERICENTER>46.2042</ARG_OF_PERICENTER><MEAN_ANOMALY>313.9067</MEAN_ANOMALY></meanElements><tleParameters><EPHEMERIS_TYPE>0</EPHEMERIS_TYPE><CLASSIFICATION_TYPE>U</CLASSIFICATION_TYPE><NORAD_CAT_ID>64513</NORAD_CAT_ID><ELEMENT_SET_NO>999</ELEMENT_SET_NO><REV_AT_EPOCH>2656</REV_AT_EPOCH><BSTAR>.18463896E-3</BSTAR><MEAN_MOTION_DOT>.1189E-4</MEAN_MOTION_DOT><MEAN_MOTION_DDOT>0</MEAN_MOTION_DDOT></tleParameters></data></segment></body></omm>
<omm id="CCSDS_OMM_VERS" version="2.0">
<header><CREATION_DATE/><ORIGINATOR/></header><body><segment><metadata><OBJECT_NAME>KUIPER-00054</OBJECT_NAME><OBJECT_ID>2025-134Q</OBJECT_ID><CENTER_NAME>EARTH</CENTER_NAME><REF_FRAME>TEME</REF_FRAME><TIME_SYSTEM>UTC</TIME_SYSTEM><MEAN_ELEMENT_THEORY>SGP4</MEAN_ELEMENT_THEORY></metadata><data><meanElements><EPOCH>2025-12-07T22:34:26.281344</EPOCH><MEAN_MOTION>14.80051464</MEAN_MOTION><ECCENTRICITY>.00054663</ECCENTRICITY><INCLINATION>51.8981</INCLINATION><RA_OF_ASC_NODE>263.7906</RA_OF_ASC_NODE><ARG_OF_PERICENTER>14.7410</ARG_OF_PERICENTER><MEAN_ANOMALY>345.3711</MEAN_ANOMALY></meanElements><tleParameters><EPHEMERIS_TYPE>0</EPHEMERIS_TYPE><CLASSIFICATION_TYPE>U</CLASSIFICATION_TYPE><NORAD_CAT_ID>64514</NORAD_CAT_ID><ELEMENT_SET_NO>999</ELEMENT_SET_NO><REV_AT_EPOCH>2669</REV_AT_EPOCH><BSTAR>.74526821E-3</BSTAR><MEAN_MOTION_DOT>.5481E-4</MEAN_MOTION_DOT><MEAN_MOTION_DDOT>0</MEAN_MOTION_DDOT></tleParameters></data></segment></body></omm>
<omm id="CCSDS_OMM_VERS" version="2.0">
<header><CREATION_DATE/><ORIGINATOR/></header><body><segment><metadata><OBJECT_NAME>KUIPER-00055</OBJECT_NAME><OBJECT_ID>2025-134R</OBJECT_ID><CENTER_NAME>EARTH</CENTER_NAME><REF_FRAME>TEME</REF_FRAME><TIME_SYSTEM>UTC</TIME_SYSTEM><MEAN_ELEMENT_THEORY>SGP4</MEAN_ELEMENT_THEORY></metadata><data><meanElements><EPOCH>2025-12-07T22:18:13.930560</EPOCH><MEAN_MOTION>15.17686509</MEAN_MOTION><ECCENTRICITY>.00028517</ECCENTRICITY><INCLINATION>51.8908</INCLINATION><RA_OF_ASC_NODE>251.0774</RA_OF_ASC_NODE><ARG_OF_PERICENTER>156.4443</ARG_OF_PERICENTER><MEAN_ANOMALY>203.6667</MEAN_ANOMALY></meanElements><tleParameters><EPHEMERIS_TYPE>0</EPHEMERIS_TYPE><CLASSIFICATION_TYPE>U</CLASSIFICATION_TYPE><NORAD_CAT_ID>64515</NORAD_CAT_ID><ELEMENT_SET_NO>999</ELEMENT_SET_NO><REV_AT_EPOCH>2687</REV_AT_EPOCH><BSTAR>.94377771E-3</BSTAR><MEAN_MOTION_DOT>.19001E-3</MEAN_MOTION_DOT><MEAN_MOTION_DDOT>0</MEAN_MOTION_DDOT></tleParameters></data></segment></body></omm>
<omm id="CCSDS_OMM_VERS" version="2.0">
<header><CREATION_DATE/><ORIGINATOR/></header><body><segment><metadata><OBJECT_NAME>KUIPER-00056</OBJECT_NAME><OBJECT_ID>2025-134S</OBJECT_ID><CENTER_NAME>EARTH</CENTER_NAME><REF_FRAME>TEME</REF_FRAME><TIME_SYSTEM>UTC</TIME_SYSTEM><MEAN_ELEMENT_THEORY>SGP4</MEAN_ELEMENT_THEORY></metadata><data><meanElements><EPOCH>2025-12-07T12:41:14.714592</EPOCH><MEAN_MOTION>14.79866999</MEAN_MOTION><ECCENTRICITY>.00019447</ECCENTRICITY><INCLINATION>51.9022</INCLINATION><RA_OF_ASC_NODE>271.6557</RA_OF_ASC_NODE><ARG_OF_PERICENTER>15.3468</ARG_OF_PERICENTER><MEAN_ANOMALY>344.7553</MEAN_ANOMALY></meanElements><tleParameters><EPHEMERIS_TYPE>0</EPHEMERIS_TYPE><CLASSIFICATION_TYPE>U</CLASSIFICATION_TYPE><NORAD_CAT_ID>64516</NORAD_CAT_ID><ELEMENT_SET_NO>999</ELEMENT_SET_NO><REV_AT_EPOCH>2655</REV_AT_EPOCH><BSTAR>.3762303E-3</BSTAR><MEAN_MOTION_DOT>.2643E-4</MEAN_MOTION_DOT><MEAN_MOTION_DDOT>0</MEAN_MOTION_DDOT></tleParameters></data></segment></body></omm>
<omm id="CCSDS_OMM_VERS" version="2.0">
<header><CREATION_DATE/><ORIGINATOR/></header><body><segment><metadata><OBJECT_NAME>KUIPER-00057</OBJECT_NAME><OBJECT_ID>2025-134T</OBJECT_ID><CENTER_NAME>EARTH</CENTER_NAME><REF_FRAME>TEME</REF_FRAME><TIME_SYSTEM>UTC</TIME_SYSTEM><MEAN_ELEMENT_THEORY>SGP4</MEAN_ELEMENT_THEORY></metadata><data><meanElements><EPOCH>2025-12-07T18:58:45.003360</EPOCH><MEAN_MOTION>14.79915339</MEAN_MOTION><ECCENTRICITY>.00094887</ECCENTRICITY><INCLINATION>51.9012</INCLINATION><RA_OF_ASC_NODE>277.9885</RA_OF_ASC_NODE><ARG_OF_PERICENTER>335.1146</ARG_OF_PERICENTER><MEAN_ANOMALY>24.9357</MEAN_ANOMALY></meanElements><tleParameters><EPHEMERIS_TYPE>0</EPHEMERIS_TYPE><CLASSIFICATION_TYPE>U</CLASSIFICATION_TYPE><NORAD_CAT_ID>64517</NORAD_CAT_ID><ELEMENT_SET_NO>999</ELEMENT_SET_NO><REV_AT_EPOCH>2648</REV_AT_EPOCH><BSTAR>.13947451E-2</BSTAR><MEAN_MOTION_DOT>.10429E-3</MEAN_MOTION_DOT><MEAN_MOTION_DDOT>0</MEAN_MOTION_DDOT></tleParameters></data></segment></body></omm>
<omm id="CCSDS_OMM_VERS" version="2.0">
<header><CREATION_DATE/><ORIGINATOR/></header><body><segment><metadata><OBJECT_NAME>KUIPER-00058</OBJECT_NAME><OBJECT_ID>2025-134U</OBJECT_ID><CENTER_NAME>EARTH</CENTER_NAME><REF_FRAME>TEME</REF_FRAME><TIME_SYSTEM>UTC</TIME_SYSTEM><MEAN_ELEMENT_THEORY>SGP4</MEAN_ELEMENT_THEORY></metadata><data><meanElements><EPOCH>2025-12-07T12:39:44.663328</EPOCH><MEAN_MOTION>14.79884581</MEAN_MOTION><ECCENTRICITY>.00043645</ECCENTRICITY><INCLINATION>51.9010</INCLINATION><RA_OF_ASC_NODE>273.0697</RA_OF_ASC_NODE><ARG_OF_PERICENTER>22.5437</ARG_OF_PERICENTER><MEAN_ANOMALY>337.5717</MEAN_ANOMALY></meanElements><tleParameters><EPHEMERIS_TYPE>0</EPHEMERIS_TYPE><CLASSIFICATION_TYPE>U</CLASSIFICATION_TYPE><NORAD_CAT_ID>64518</NORAD_CAT_ID><ELEMENT_SET_NO>999</ELEMENT_SET_NO><REV_AT_EPOCH>2653</REV_AT_EPOCH><BSTAR>.72083786E-3</BSTAR><MEAN_MOTION_DOT>.5272E-4</MEAN_MOTION_DOT><MEAN_MOTION_DDOT>0</MEAN_MOTION_DDOT></tleParameters></data></segment></body></omm>
<omm id="CCSDS_OMM_VERS" version="2.0">
<header><CREATION_DATE/><ORIGINATOR/></header><body><segment><metadata><OBJECT_NAME>KUIPER-00059</OBJECT_NAME><OBJECT_ID>2025-134V</OBJECT_ID><CENTER_NAME>EARTH</CENTER_NAME><REF_FRAME>TEME</REF_FRAME><TIME_SYSTEM>UTC</TIME_SYSTEM><MEAN_ELEMENT_THEORY>SGP4</MEAN_ELEMENT_THEORY></metadata><data><meanElements><EPOCH>2025-12-07T12:47:21.284736</EPOCH><MEAN_MOTION>14.79956793</MEAN_MOTION><ECCENTRICITY>.00042324</ECCENTRICITY><INCLINATION>51.9000</INCLINATION><RA_OF_ASC_NODE>268.1002</RA_OF_ASC_NODE><ARG_OF_PERICENTER>148.7931</ARG_OF_PERICENTER><MEAN_ANOMALY>211.3283</MEAN_ANOMALY></meanElements><tleParameters><EPHEMERIS_TYPE>0</EPHEMERIS_TYPE><CLASSIFICATION_TYPE>U</CLASSIFICATION_TYPE><NORAD_CAT_ID>64519</NORAD_CAT_ID><ELEMENT_SET_NO>999</ELEMENT_SET_NO><REV_AT_EPOCH>2660</REV_AT_EPOCH><BSTAR>.13139168E-2</BSTAR><MEAN_MOTION_DOT>.9816E-4</MEAN_MOTION_DOT><MEAN_MOTION_DDOT>0</MEAN_MOTION_DDOT></tleParameters></data></segment></body></omm>
<omm id="CCSDS_OMM_VERS" version="2.0">
<header><CREATION_DATE/><ORIGINATOR/></header><body><segment><metadata><OBJECT_NAME>KUIPER-00060</OBJECT_NAME><OBJECT_ID>2025-134W</OBJECT_ID><CENTER_NAME>EARTH</CENTER_NAME><REF_FRAME>TEME</REF_FRAME><TIME_SYSTEM>UTC</TIME_SYSTEM><MEAN_ELEMENT_THEORY>SGP4</MEAN_ELEMENT_THEORY></metadata><data><meanElements><EPOCH>2025-12-07T06:12:37.771200</EPOCH><MEAN_MOTION>14.80019431</MEAN_MOTION><ECCENTRICITY>.0003</ECCENTRICITY><INCLINATION>51.9022</INCLINATION><RA_OF_ASC_NODE>270.3256</RA_OF_ASC_NODE><ARG_OF_PERICENTER>62.4500</ARG_OF_PERICENTER><MEAN_ANOMALY>297.6767</MEAN_ANOMALY></meanElements><tleParameters><EPHEMERIS_TYPE>0</EPHEMERIS_TYPE><CLASSIFICATION_TYPE>U</CLASSIFICATION_TYPE><NORAD_CAT_ID>64520</NORAD_CAT_ID><ELEMENT_SET_NO>999</ELEMENT_SET_NO><REV_AT_EPOCH>2653</REV_AT_EPOCH><BSTAR>.13160587E-2</BSTAR><MEAN_MOTION_DOT>.9847E-4</MEAN_MOTION_DOT><MEAN_MOTION_DDOT>0</MEAN_MOTION_DDOT></tleParameters></data></segment></body></omm>

</ndm>
