KUIPER-00053            
1 64513U 25134P   25341.53103957  .00001189  00000+0  18464-3 0  9996
2 64513  51.9016 270.6186 0001778  46.2042 313.9067 14.80022751 26562
KUIPER-00054            
1 64514U 25134Q   25341.94058196  .00005481  00000+0  74527-3 0  9997
2 64514  51.8981 263.7906 0005466  14.7410 345.3711 14.80051464 26695
KUIPER-00055            
1 64515U 25134R   25341.92932790  .00019001  00000+0  94378-3 0  9996
2 64515  51.8908 251.0774 0002851 156.4443 203.6667 15.17686509 26874
KUIPER-00056            
1 64516U 25134S   25341.52864253  .00002643  00000+0  37623-3 0  9995
2 64516  51.9022 271.6557 0001944  15.3468 344.7553 14.79866999 26558
KUIPER-00057            
1 64517U 25134T   25341.79079865  .00010429  00000+0  13947-2 0  9995
2 64517  51.9012 277.9885 0009488 335.1146  24.9357 14.79915339 26482
KUIPER-00058            
1 64518U 25134U   25341.52760027  .00005272  00000+0  72084-3 0  9992
2 64518  51.9010 273.0697 0004364  22.5437 337.5717 14.79884581 26530
KUIPER-00059            
1 64519U 25134V   25341.53288524  .00009816  00000+0  13139-2 0  9994
2 64519  51.9000 268.1002 0004232 148.7931 211.3283 14.79956793 26609
KUIPER-00060            
1 64520U 25134W   25341.25877050  .00009847  00000+0  13161-2 0  9992
2 64520  51.9022 270.3256 0003000  62.4500 297.6767 14.80019431 26534
